[{"OBJECT_NAME":"GONETS-M 19","OBJECT_ID":"2020-068C","EPOCH":"2026-03-09T23:25:54.806592","MEAN_MOTION":12.42888534,"ECCENTRICITY":0.00123158,"INCLINATION":82.4945,"RA_OF_ASC_NODE":48.7988,"ARG_OF_PERICENTER":264.2455,"MEAN_ANOMALY":95.722,"EPHEMERIS_TYPE":0,"CLASSIFICATION_TYPE":"U","NORAD_CAT_ID":46488,"ELEMENT_SET_NO":999,"REV_AT_EPOCH":24692,"BSTAR":5.2679103e-5,"MEAN_MOTION_DOT":1.7e-7,"MEAN_MOTION_DDOT":0},{"OBJECT_NAME":"COSMOS 1197","OBJECT_ID":"1980-058F","EPOCH":"2026-03-09T23:14:55.228128","MEAN_MOTION":12.46010177,"ECCENTRICITY":0.00136561,"INCLINATION":74.0145,"RA_OF_ASC_NODE":254.0238,"ARG_OF_PERICENTER":211.8127,"MEAN_ANOMALY":148.2097,"EPHEMERIS_TYPE":0,"CLASSIFICATION_TYPE":"U","NORAD_CAT_ID":11880,"ELEMENT_SET_NO":999,"REV_AT_EPOCH":7717,"BSTAR":5.1344581e-5,"MEAN_MOTION_DOT":-8.0e-8,"MEAN_MOTION_DDOT":0}]
